{"type": "FeatureCollection", "features": [ {"type": "Feature", "properties": {"norad_id": 30649, "name": "FENGYUN 1C DEB", "group": "fengyun-1c-debris", "lat": 26.73237111985527, "lon": -91.01683983012263, "alt_km": 756.1055697513284, "timestamp": "2025-12-15T04:01:20.729407+00:00", "meta": {"OBJECT_NAME": "FENGYUN 1C DEB", "OBJECT_ID": "1999-025APG", "EPOCH": "2025-12-14T05:45:51.592608", "MEAN_MOTION": 14.29549713, "ECCENTRICITY": 0.00512773, "INCLINATION": 98.809, "RA_OF_ASC_NODE": 83.5662, "ARG_OF_PERICENTER": 167.0975, "MEAN_ANOMALY": 255.6729, "EPHEMERIS_TYPE": 0, "CLASSIFICATION_TYPE": "U", "NORAD_CAT_ID": 30649, "ELEMENT_SET_NO": 999, "REV_AT_EPOCH": 97085, "BSTAR": 0.0020671154, "MEAN_MOTION_DOT": 5.32e-05, "MEAN_MOTION_DDOT": 0}, "tle": {"line1": "1 30649U 99025APG 25348.24018047  .00005320  00000+0  20671-2 0  9992", "line2": "2 30649  98.8090  83.5662 0051277 167.0975 255.6729 14.29549713970855"}}, "geometry": {"type": "Point", "coordinates": [-91.01683983012263, 26.73237111985527]}}, {"type": "Feature", "properties": {"norad_id": 30650, "name": "FENGYUN 1C DEB", "group": "fengyun-1c-debris", "lat": 14.300575752223606, "lon": 27.458650051995445, "alt_km": 897.8178917518399, "timestamp": "2025-12-15T04:01:20.729418+00:00", "meta": {"OBJECT_NAME": "FENGYUN 1C DEB", "OBJECT_ID": "1999-025APH", "EPOCH": "2025-12-13T15:09:31.943808", "MEAN_MOTION": 14.13942478, "ECCENTRICITY": 0.00722502, "INCLINATION": 99.2051, "RA_OF_ASC_NODE": 28.2466, "ARG_OF_PERICENTER": 187.1693, "MEAN_ANOMALY": 293.4426, "EPHEMERIS_TYPE": 0, "CLASSIFICATION_TYPE": "U", "NORAD_CAT_ID": 30650, "ELEMENT_SET_NO": 999, "REV_AT_EPOCH": 96311, "BSTAR": 0.0020010135, "MEAN_MOTION_DOT": 3.848e-05, "MEAN_MOTION_DDOT": 0}, "tle": {"line1": "1 30650U 99025APH 25347.63161972  .00003848  00000+0  20010-2 0  9992", "line2": "2 30650  99.2051  28.2466 0072250 187.1693 293.4426 14.13942478963114"}}, "geometry": {"type": "Point", "coordinates": [27.458650051995445, 14.300575752223606]}}, {"type": "Feature", "properties": {"norad_id": 30652, "name": "FENGYUN 1C DEB", "group": "fengyun-1c-debris", "lat": 23.22796907624946, "lon": 18.4291254154848, "alt_km": 869.470238320193, "timestamp": "2025-12-15T04:01:20.729428+00:00", "meta": {"OBJECT_NAME": "FENGYUN 1C DEB", "OBJECT_ID": "1999-025APJ", "EPOCH": "2025-12-14T02:40:20.493120", "MEAN_MOTION": 14.07805602, "ECCENTRICITY": 0.00073402, "INCLINATION": 98.7852, "RA_OF_ASC_NODE": 21.2071, "ARG_OF_PERICENTER": 260.7902, "MEAN_ANOMALY": 172.5441, "EPHEMERIS_TYPE": 0, "CLASSIFICATION_TYPE": "U", "NORAD_CAT_ID": 30652, "ELEMENT_SET_NO": 999, "REV_AT_EPOCH": 96713, "BSTAR": 0.00021672237, "MEAN_MOTION_DOT": 3.24e-06, "MEAN_MOTION_DDOT": 0}, "tle": {"line1": "1 30652U 99025APJ 25348.11134830  .00000324  00000+0  21672-3 0  9993", "line2": "2 30652  98.7852  21.2071 0007340 260.7902 172.5441 14.07805602967133"}}, "geometry": {"type": "Point", "coordinates": [18.4291254154848, 23.22796907624946]}}, {"type": "Feature", "properties": {"norad_id": 30654, "name": "FENGYUN 1C DEB", "group": "fengyun-1c-debris", "lat": 66.88991218979606, "lon": 114.92846560139502, "alt_km": 804.8194250510242, "timestamp": "2025-12-15T04:01:20.729439+00:00", "meta": {"OBJECT_NAME": "FENGYUN 1C DEB", "OBJECT_ID": "1999-025APL", "EPOCH": "2025-12-14T05:28:23.405952", "MEAN_MOTION": 14.17106981, "ECCENTRICITY": 0.00353404, "INCLINATION": 99.2412, "RA_OF_ASC_NODE": 271.5255, "ARG_OF_PERICENTER": 92.4831, "MEAN_ANOMALY": 268.0389, "EPHEMERIS_TYPE": 0, "CLASSIFICATION_TYPE": "U", "NORAD_CAT_ID": 30654, "ELEMENT_SET_NO": 999, "REV_AT_EPOCH": 96701, "BSTAR": 0.0013830149, "MEAN_MOTION_DOT": 2.755e-05, "MEAN_MOTION_DDOT": 0}, "tle": {"line1": "1 30654U 99025APL 25348.22804868  .00002755  00000+0  13830-2 0  9998", "line2": "2 30654  99.2412 271.5255 0035340  92.4831 268.0389 14.17106981967013"}}, "geometry": {"type": "Point", "coordinates": [114.92846560139502, 66.88991218979606]}}, {"type": "Feature", "properties": {"norad_id": 30656, "name": "FENGYUN 1C DEB", "group": "fengyun-1c-debris", "lat": 32.186122143922034, "lon": -10.848413783492177, "alt_km": 730.7812872084205, "timestamp": "2025-12-15T04:01:20.729449+00:00", "meta": {"OBJECT_NAME": "FENGYUN 1C DEB", "OBJECT_ID": "1999-025APN", "EPOCH": "2025-12-13T18:07:04.338048", "MEAN_MOTION": 14.45353052, "ECCENTRICITY": 0.00302327, "INCLINATION": 99.0184, "RA_OF_ASC_NODE": 161.9151, "ARG_OF_PERICENTER": 83.3138, "MEAN_ANOMALY": 277.1491, "EPHEMERIS_TYPE": 0, "CLASSIFICATION_TYPE": "U", "NORAD_CAT_ID": 30656, "ELEMENT_SET_NO": 999, "REV_AT_EPOCH": 97100, "BSTAR": 0.003003169, "MEAN_MOTION_DOT": 0.00010581, "MEAN_MOTION_DDOT": 0}, "tle": {"line1": "1 30656U 99025APN 25347.75491132  .00010581  00000+0  30032-2 0  9992", "line2": "2 30656  99.0184 161.9151 0030232  83.3138 277.1491 14.45353052971003"}}, "geometry": {"type": "Point", "coordinates": [-10.848413783492177, 32.186122143922034]}}, {"type": "Feature", "properties": {"norad_id": 30657, "name": "FENGYUN 1C DEB", "group": "fengyun-1c-debris", "lat": -24.354199854357343, "lon": -96.76960680412479, "alt_km": 776.2216698632674, "timestamp": "2025-12-15T04:01:20.729459+00:00", "meta": {"OBJECT_NAME": "FENGYUN 1C DEB", "OBJECT_ID": "1999-025APP", "EPOCH": "2025-12-14T05:39:13.724928", "MEAN_MOTION": 14.38625643, "ECCENTRICITY": 0.00160726, "INCLINATION": 98.8341, "RA_OF_ASC_NODE": 86.3083, "ARG_OF_PERICENTER": 339.6769, "MEAN_ANOMALY": 80.7391, "EPHEMERIS_TYPE": 0, "CLASSIFICATION_TYPE": "U", "NORAD_CAT_ID": 30657, "ELEMENT_SET_NO": 999, "REV_AT_EPOCH": 97254, "BSTAR": 0.0023605485, "MEAN_MOTION_DOT": 7.201e-05, "MEAN_MOTION_DDOT": 0}, "tle": {"line1": "1 30657U 99025APP 25348.23557552  .00007201  00000+0  23605-2 0  9999", "line2": "2 30657  98.8341  86.3083 0016072 339.6769  80.7391 14.38625643972540"}}, "geometry": {"type": "Point", "coordinates": [-96.76960680412479, -24.354199854357343]}}, {"type": "Feature", "properties": {"norad_id": 30658, "name": "FENGYUN 1C DEB", "group": "fengyun-1c-debris", "lat": -3.029298380400228, "lon": 21.824121693821503, "alt_km": 1037.5208989706562, "timestamp": "2025-12-15T04:01:20.729469+00:00", "meta": {"OBJECT_NAME": "FENGYUN 1C DEB", "OBJECT_ID": "1999-025APQ", "EPOCH": "2025-12-12T01:36:05.059008", "MEAN_MOTION": 13.87196336, "ECCENTRICITY": 0.01838687, "INCLINATION": 98.4402, "RA_OF_ASC_NODE": 18.5712, "ARG_OF_PERICENTER": 229.4011, "MEAN_ANOMALY": 129.1026, "EPHEMERIS_TYPE": 0, "CLASSIFICATION_TYPE": "U", "NORAD_CAT_ID": 30658, "ELEMENT_SET_NO": 999, "REV_AT_EPOCH": 94675, "BSTAR": 0.002601853, "MEAN_MOTION_DOT": 3.454e-05, "MEAN_MOTION_DDOT": 0}, "tle": {"line1": "1 30658U 99025APQ 25346.06672522  .00003454  00000+0  26019-2 0  9992", "line2": "2 30658  98.4402  18.5712 0183868 229.4011 129.1026 13.87196336946757"}}, "geometry": {"type": "Point", "coordinates": [21.824121693821503, -3.029298380400228]}}, {"type": "Feature", "properties": {"norad_id": 30660, "name": "FENGYUN 1C DEB", "group": "fengyun-1c-debris", "lat": -63.667219804984235, "lon": -111.11817966797851, "alt_km": 597.8002242494176, "timestamp": "2025-12-15T04:01:20.729479+00:00", "meta": {"OBJECT_NAME": "FENGYUN 1C DEB", "OBJECT_ID": "1999-025APS", "EPOCH": "2025-12-13T05:49:06.420288", "MEAN_MOTION": 14.87552438, "ECCENTRICITY": 0.01370228, "INCLINATION": 98.1386, "RA_OF_ASC_NODE": 83.7135, "ARG_OF_PERICENTER": 332.9347, "MEAN_ANOMALY": 49.9513, "EPHEMERIS_TYPE": 0, "CLASSIFICATION_TYPE": "U", "NORAD_CAT_ID": 30660, "ELEMENT_SET_NO": 999, "REV_AT_EPOCH": 792, "BSTAR": 0.00096523488, "MEAN_MOTION_DOT": 0.00010362, "MEAN_MOTION_DDOT": 0}, "tle": {"line1": "1 30660U 99025APS 25347.24243542  .00010362  00000+0  96523-3 0  9996", "line2": "2 30660  98.1386  83.7135 0137022 332.9347  49.9513 14.87552438  7921"}}, "geometry": {"type": "Point", "coordinates": [-111.11817966797851, -63.667219804984235]}}, {"type": "Feature", "properties": {"norad_id": 30661, "name": "FENGYUN 1C DEB", "group": "fengyun-1c-debris", "lat": 74.6090796532602, "lon": 127.61883200291098, "alt_km": 732.8271165448214, "timestamp": "2025-12-15T04:01:20.729492+00:00", "meta": {"OBJECT_NAME": "FENGYUN 1C DEB", "OBJECT_ID": "1999-025APT", "EPOCH": "2025-12-14T05:42:04.596480", "MEAN_MOTION": 14.21143195, "ECCENTRICITY": 0.01446915, "INCLINATION": 99.487, "RA_OF_ASC_NODE": 164.0257, "ARG_OF_PERICENTER": 41.4131, "MEAN_ANOMALY": 319.7905, "EPHEMERIS_TYPE": 0, "CLASSIFICATION_TYPE": "U", "NORAD_CAT_ID": 30661, "ELEMENT_SET_NO": 999, "REV_AT_EPOCH": 97923, "BSTAR": 0.00015627732, "MEAN_MOTION_DOT": 3.28e-06, "MEAN_MOTION_DDOT": 0}, "tle": {"line1": "1 30661U 99025APT 25348.23755320  .00000328  00000+0  15628-3 0  9997", "line2": "2 30661  99.4870 164.0257 0144691  41.4131 319.7905 14.21143195979234"}}, "geometry": {"type": "Point", "coordinates": [127.61883200291098, 74.6090796532602]}}, {"type": "Feature", "properties": {"norad_id": 30662, "name": "FENGYUN 1C DEB", "group": "fengyun-1c-debris", "lat": 44.00070452670981, "lon": -125.63289838018326, "alt_km": 828.3897289212573, "timestamp": "2025-12-15T04:01:20.729502+00:00", "meta": {"OBJECT_NAME": "FENGYUN 1C DEB", "OBJECT_ID": "1999-025APU", "EPOCH": "2025-12-13T09:28:03.255168", "MEAN_MOTION": 14.22367295, "ECCENTRICITY": 0.00330397, "INCLINATION": 99.0535, "RA_OF_ASC_NODE": 43.6894, "ARG_OF_PERICENTER": 269.1239, "MEAN_ANOMALY": 152.1087, "EPHEMERIS_TYPE": 0, "CLASSIFICATION_TYPE": "U", "NORAD_CAT_ID": 30662, "ELEMENT_SET_NO": 999, "REV_AT_EPOCH": 96648, "BSTAR": 0.0024107795, "MEAN_MOTION_DOT": 5.351e-05, "MEAN_MOTION_DDOT": 0}, "tle": {"line1": "1 30662U 99025APU 25347.39448212  .00005351  00000+0  24108-2 0  9996", "line2": "2 30662  99.0535  43.6894 0033039 269.1239 152.1087 14.22367295966482"}}, "geometry": {"type": "Point", "coordinates": [-125.63289838018326, 44.00070452670981]}}]}